{
  "type": "FeatureCollection",
  "features": [
    {
      "type": "Feature",
      "properties": {
        "norad_id": 30368,
        "name": "FENGYUN 1C DEB",
        "group": "fengyun-1c-debris",
        "lat": 31.426485078470872,
        "lon": 98.23680553717266,
        "alt_km": 1033.9484809373816,
        "timestamp": "2025-12-24T09:46:31.280036+00:00",
        "meta_object_name": "FENGYUN 1C DEB",
        "meta_object_id": "1999-025ACF",
        "meta_epoch": "2025-12-24T01:47:24.472320",
        "meta_mean_motion": 13.7537688,
        "meta_eccentricity": 0.0186304,
        "meta_inclination": 99.1882,
        "meta_ra_of_asc_node": 103.5918,
        "meta_arg_of_pericenter": 278.0057,
        "meta_mean_anomaly": 265.4943,
        "meta_ephemeris_type": 0,
        "meta_classification_type": "U",
        "meta_norad_cat_id": 30368,
        "meta_element_set_no": 999,
        "meta_rev_at_epoch": 94817,
        "meta_bstar": 0.00048852,
        "meta_mean_motion_dot": 4.88e-06,
        "meta_mean_motion_ddot": 0,
        "tle_line1": "1 30368U 99025ACF 25358.07458880  .00000488  00000+0  48852-3 0  9997",
        "tle_line2": "2 30368  99.1882 103.5918 0186304 278.0057 265.4943 13.75376880948177"
      },
      "geometry": {
        "type": "Point",
        "coordinates": [
          98.23680553717266,
          31.426485078470872
        ]
      }
    },
    {
      "type": "Feature",
      "properties": {
        "norad_id": 30369,
        "name": "FENGYUN 1C DEB",
        "group": "fengyun-1c-debris",
        "lat": 4.458588716304989,
        "lon": -5.2408667304712875,
        "alt_km": 921.2309371453866,
        "timestamp": "2025-12-24T09:46:31.280046+00:00",
        "meta_object_name": "FENGYUN 1C DEB",
        "meta_object_id": "1999-025ACG",
        "meta_epoch": "2025-12-23T22:08:56.120064",
        "meta_mean_motion": 14.1206533,
        "meta_eccentricity": 0.0099724,
        "meta_inclination": 98.7215,
        "meta_ra_of_asc_node": 354.9737,
        "meta_arg_of_pericenter": 163.6918,
        "meta_mean_anomaly": 260.1555,
        "meta_ephemeris_type": 0,
        "meta_classification_type": "U",
        "meta_norad_cat_id": 30369,
        "meta_element_set_no": 999,
        "meta_rev_at_epoch": 97404,
        "meta_bstar": 0.00017692,
        "meta_mean_motion_dot": 2.97e-06,
        "meta_mean_motion_ddot": 0,
        "tle_line1": "1 30369U 99025ACG 25357.92287176  .00000297  00000+0  17692-3 0  9995",
        "tle_line2": "2 30369  98.7215 354.9737 0099724 163.6918 260.1555 14.12065330974041"
      },
      "geometry": {
        "type": "Point",
        "coordinates": [
          -5.2408667304712875,
          4.458588716304989
        ]
      }
    },
    {
      "type": "Feature",
      "properties": {
        "norad_id": 30370,
        "name": "FENGYUN 1C DEB",
        "group": "fengyun-1c-debris",
        "lat": -47.09509314309335,
        "lon": -135.2682063491738,
        "alt_km": 794.0715182059384,
        "timestamp": "2025-12-24T09:46:31.280057+00:00",
        "meta_object_name": "FENGYUN 1C DEB",
        "meta_object_id": "1999-025ACH",
        "meta_epoch": "2025-12-24T03:54:19.878048",
        "meta_mean_motion": 14.19206987,
        "meta_eccentricity": 0.0099701,
        "meta_inclination": 99.0553,
        "meta_ra_of_asc_node": 54.362,
        "meta_arg_of_pericenter": 284.4575,
        "meta_mean_anomaly": 135.3997,
        "meta_ephemeris_type": 0,
        "meta_classification_type": "U",
        "meta_norad_cat_id": 30370,
        "meta_element_set_no": 999,
        "meta_rev_at_epoch": 97256,
        "meta_bstar": 0.0012507,
        "meta_mean_motion_dot": 2.707e-05,
        "meta_mean_motion_ddot": 0,
        "tle_line1": "1 30370U 99025ACH 25358.16273007  .00002707  00000+0  12507-2 0  9999",
        "tle_line2": "2 30370  99.0553  54.3620 0099701 284.4575 135.3997 14.19206987972560"
      },
      "geometry": {
        "type": "Point",
        "coordinates": [
          -135.2682063491738,
          -47.09509314309335
        ]
      }
    },
    {
      "type": "Feature",
      "properties": {
        "norad_id": 30371,
        "name": "FENGYUN 1C DEB",
        "group": "fengyun-1c-debris",
        "lat": -9.495304784604935,
        "lon": 42.68624752146859,
        "alt_km": 791.87436549638,
        "timestamp": "2025-12-24T09:46:31.280067+00:00",
        "meta_object_name": "FENGYUN 1C DEB",
        "meta_object_id": "1999-025ACJ",
        "meta_epoch": "2025-12-24T03:12:02.208960",
        "meta_mean_motion": 14.30288526,
        "meta_eccentricity": 0.0006903,
        "meta_inclination": 98.5744,
        "meta_ra_of_asc_node": 40.9703,
        "meta_arg_of_pericenter": 298.1742,
        "meta_mean_anomaly": 82.5156,
        "meta_ephemeris_type": 0,
        "meta_classification_type": "U",
        "meta_norad_cat_id": 30371,
        "meta_element_set_no": 999,
        "meta_rev_at_epoch": 98066,
        "meta_bstar": 0.0010277,
        "meta_mean_motion_dot": 2.624e-05,
        "meta_mean_motion_ddot": 0,
        "tle_line1": "1 30371U 99025ACJ 25358.13335890  .00002624  00000+0  10277-2 0  9996",
        "tle_line2": "2 30371  98.5744  40.9703 0006903 298.1742  82.5156 14.30288526980662"
      },
      "geometry": {
        "type": "Point",
        "coordinates": [
          42.68624752146859,
          -9.495304784604935
        ]
      }
    },
    {
      "type": "Feature",
      "properties": {
        "norad_id": 30374,
        "name": "FENGYUN 1C DEB",
        "group": "fengyun-1c-debris",
        "lat": -57.29977612319239,
        "lon": -121.91435842234362,
        "alt_km": 723.1737305241732,
        "timestamp": "2025-12-24T09:46:31.280077+00:00",
        "meta_object_name": "FENGYUN 1C DEB",
        "meta_object_id": "1999-025ACM",
        "meta_epoch": "2025-12-24T02:31:20.455968",
        "meta_mean_motion": 14.61434847,
        "meta_eccentricity": 0.0039706,
        "meta_inclination": 99.272,
        "meta_ra_of_asc_node": 223.0056,
        "meta_arg_of_pericenter": 132.9046,
        "meta_mean_anomaly": 19.5212,
        "meta_ephemeris_type": 0,
        "meta_classification_type": "U",
        "meta_norad_cat_id": 30374,
        "meta_element_set_no": 999,
        "meta_rev_at_epoch": 99088,
        "meta_bstar": 0.0015666,
        "meta_mean_motion_dot": 7.793e-05,
        "meta_mean_motion_ddot": 0,
        "tle_line1": "1 30374U 99025ACM 25358.10509787  .00007793  00000+0  15666-2 0  9993",
        "tle_line2": "2 30374  99.2720 223.0056 0039706 132.9046  19.5212 14.61434847990882"
      },
      "geometry": {
        "type": "Point",
        "coordinates": [
          -121.91435842234362,
          -57.29977612319239
        ]
      }
    },
    {
      "type": "Feature",
      "properties": {
        "norad_id": 30377,
        "name": "FENGYUN 1C DEB",
        "group": "fengyun-1c-debris",
        "lat": 11.309673084855408,
        "lon": 15.766579498838599,
        "alt_km": 960.5785063426902,
        "timestamp": "2025-12-24T09:46:31.280087+00:00",
        "meta_object_name": "FENGYUN 1C DEB",
        "meta_object_id": "1999-025ACQ",
        "meta_epoch": "2025-12-23T19:08:05.153568",
        "meta_mean_motion": 13.99182987,
        "meta_eccentricity": 0.01179068,
        "meta_inclination": 98.8928,
        "meta_ra_of_asc_node": 16.9687,
        "meta_arg_of_pericenter": 235.871,
        "meta_mean_anomaly": 303.7269,
        "meta_ephemeris_type": 0,
        "meta_classification_type": "U",
        "meta_norad_cat_id": 30377,
        "meta_element_set_no": 999,
        "meta_rev_at_epoch": 96361,
        "meta_bstar": 0.00041037873,
        "meta_mean_motion_dot": 5.88e-06,
        "meta_mean_motion_ddot": 0,
        "tle_line1": "1 30377U 99025ACQ 25357.79728187  .00000588  00000+0  41038-3 0  9995",
        "tle_line2": "2 30377  98.8928  16.9687 0117906 235.8710 303.7269 13.99182987963615"
      },
      "geometry": {
        "type": "Point",
        "coordinates": [
          15.766579498838599,
          11.309673084855408
        ]
      }
    },
    {
      "type": "Feature",
      "properties": {
        "norad_id": 30379,
        "name": "FENGYUN 1C DEB",
        "group": "fengyun-1c-debris",
        "lat": 39.482233304861005,
        "lon": -159.9027826934623,
        "alt_km": 869.8234321744067,
        "timestamp": "2025-12-24T09:46:31.280098+00:00",
        "meta_object_name": "FENGYUN 1C DEB",
        "meta_object_id": "1999-025ACS",
        "meta_epoch": "2025-12-24T00:50:50.321760",
        "meta_mean_motion": 14.08046372,
        "meta_eccentricity": 0.003562,
        "meta_inclination": 98.7577,
        "meta_ra_of_asc_node": 12.4406,
        "meta_arg_of_pericenter": 246.5036,
        "meta_mean_anomaly": 169.1481,
        "meta_ephemeris_type": 0,
        "meta_classification_type": "U",
        "meta_norad_cat_id": 30379,
        "meta_element_set_no": 999,
        "meta_rev_at_epoch": 96976,
        "meta_bstar": 0.00025047,
        "meta_mean_motion_dot": 3.86e-06,
        "meta_mean_motion_ddot": 0,
        "tle_line1": "1 30379U 99025ACS 25358.03530465  .00000386  00000+0  25047-3 0  9993",
        "tle_line2": "2 30379  98.7577  12.4406 0035620 246.5036 169.1481 14.08046372969768"
      },
      "geometry": {
        "type": "Point",
        "coordinates": [
          -159.9027826934623,
          39.482233304861005
        ]
      }
    }
  ]
}